{
  "type": "FeatureCollection",
  "license": "CC0-1.0",
  "note": "Highly simplified US outline for Sales Arena Money Map demo pins only.",
  "features": [
    {
      "type": "Feature",
      "properties": { "name": "United States" },
      "geometry": {
        "type": "Polygon",
        "coordinates": [
          [
            [-124.7, 48.4],
            [-124.5, 42.0],
            [-117.0, 32.5],
            [-106.5, 31.8],
            [-99.0, 26.0],
            [-81.0, 25.0],
            [-80.0, 35.0],
            [-75.0, 39.5],
            [-71.0, 41.5],
            [-67.0, 44.5],
            [-67.0, 47.5],
            [-89.0, 48.0],
            [-95.0, 49.0],
            [-124.7, 48.4]
          ]
        ]
      }
    }
  ]
}
