{
  "type": "FeatureCollection",
  "license": "CC0-1.0",
  "note": "Simplified continental outlines for world inset on Money Map.",
  "features": [
    {
      "type": "Feature",
      "properties": { "name": "Americas" },
      "geometry": {
        "type": "Polygon",
        "coordinates": [[[-120, 15], [-35, 10], [-50, -55], [-75, -50], [-120, 15]]]
      }
    },
    {
      "type": "Feature",
      "properties": { "name": "EMEA" },
      "geometry": {
        "type": "Polygon",
        "coordinates": [[[-10, 35], [40, 35], [50, 10], [20, -35], [-20, 5], [-10, 35]]]
      }
    },
    {
      "type": "Feature",
      "properties": { "name": "APAC" },
      "geometry": {
        "type": "Polygon",
        "coordinates": [[[60, 45], [150, 50], [145, -10], [100, -40], [60, 45]]]
      }
    }
  ]
}
